[{"OBJECT_ID":"2009-020B","OBJECT_NAME":"BLOCK DM-SL R/B","NORAD_CAT_ID":"34811","OBJECT_TYPE":"ROCKET BODY","PERIOD":"793.443","INCLINATION":"1.7499","APOGEE":"35473.278","PERIGEE":"8551.152","ECCENTRICITY":"0.4741422","MEAN_MOTION":"1.81487462","TLE_LINE1":"1 34811U 09020B   16239.50600978 -.00000141  00000-0  00000+0 0  9990","TLE_LINE2":"2 34811   1.7499 306.7989 4741422 252.9097  51.8898  1.81487462 48731","LAUNCH_DATE":"2009-04-20","LAUNCH_SITE":"SEA LAUNCH","OWNER":"SEA LAUNCH DEMO","ORBIT_TYPE":"Highly Elliptical Orbit","OPERATIONAL_STATUS":"N/A, derelict rocket body","satInfo":{"lng":-144.00284596024446,"lat":-0.3876875025492483,"elevation":-14.95766231401784,"azimuth":99.00284596024443,"range":25268.85084513601,"height":18035.08252136128,"velocity":4.314475627093358},"x":-78,"y":104,"dx":-3.4906100657023496,"dy":-2.5358117647018017,"maxAlt":254,"minAlt":60},{"OBJECT_ID":"2009-032A","OBJECT_NAME":"MEASAT 3A","NORAD_CAT_ID":"35362","OBJECT_TYPE":"PAYLOAD","PERIOD":"1436.193","INCLINATION":"0.0369","APOGEE":"35797.894","PERIGEE":"35779.062","ECCENTRICITY":"0.0002233","MEAN_MOTION":"1.00265074","TLE_LINE1":"1 35362U 09032A   16238.35483297  .00000000  00000-0  10000-3 0  9998","TLE_LINE2":"2 35362   0.0369 222.3526 0002233 341.6319 349.2463  1.00265074 26316","LAUNCH_DATE":"2009-06-21","LAUNCH_SITE":"TYURATAM MISSILE AND SPACE COMPLEX","OWNER":"MALAYSIA","ORBIT_TYPE":"Geosynchronous","OPERATIONAL_STATUS":"Operational","satInfo":{"lng":58.85364636612914,"lat":0.9956305179780809,"elevation":-7.602417051536602,"azimuth":256.1463536338709,"range":42520.62997083414,"height":35775.09265014174,"velocity":3.0754436229133773},"x":219,"y":-135,"dx":1.590699095671914,"dy":2.6321150933701807,"maxAlt":256,"minAlt":256},{"OBJECT_ID":"2009-034A","OBJECT_NAME":"SIRIUS FM-5","NORAD_CAT_ID":"35493","OBJECT_TYPE":"PAYLOAD","PERIOD":"1436.109","INCLINATION":"0.0157","APOGEE":"35788.217","PERIGEE":"35785.484","ECCENTRICITY":"3.24e-05","MEAN_MOTION":"1.00270879","TLE_LINE1":"1 35493U 09034A   16239.28970964 -.00000229  00000-0  00000+0 0  9999","TLE_LINE2":"2 35493   0.0157 101.3910 0000324 295.7342 315.9766  1.00270879 26059","LAUNCH_DATE":"2009-06-30","LAUNCH_SITE":"TYURATAM MISSILE AND SPACE COMPLEX","OWNER":"UNITED STATES OF AMERICA","ORBIT_TYPE":"Geosynchronous","OPERATIONAL_STATUS":"Operational","satInfo":{"lng":-101.92409092854129,"lat":0.16241274438275183,"elevation":-8.413609126158764,"azimuth":56.92409092854127,"range":42631.11734633148,"height":35794.336759674465,"velocity":3.0744596222077067},"x":-254,"y":52,"dx":-0.6352313101050255,"dy":-3.0081195373933878,"maxAlt":256,"minAlt":256},{"OBJECT_ID":"2009-042A","OBJECT_NAME":"ASIASAT 5","NORAD_CAT_ID":"35696","OBJECT_TYPE":"PAYLOAD","PERIOD":"1436.125","INCLINATION":"0.0076","APOGEE":"35794.457","PERIGEE":"35779.859","ECCENTRICITY":"0.0001731","MEAN_MOTION":"1.00269783","TLE_LINE1":"1 35696U 09042A   16238.97690623 -.00000335 +00000-0 +00000-0 0  9998","TLE_LINE2":"2 35696 000.0076 184.0672 0001731 293.6575 309.1007 01.00269783025756","LAUNCH_DATE":"2009-08-11","LAUNCH_SITE":"TYURATAM MISSILE AND SPACE COMPLEX","OWNER":"ASIASAT CORP","ORBIT_TYPE":"Geosynchronous","OPERATIONAL_STATUS":"Operational","satInfo":{"lng":50.47627479253691,"lat":0.004299212696637167,"elevation":-8.568550930771153,"azimuth":264.5237252074631,"range":42646.15256303066,"height":35792.012569289545,"velocity":3.074432779756344},"x":197,"y":-165,"dx":1.956561895570637,"dy":2.3714979371783897,"maxAlt":256,"minAlt":256},{"OBJECT_ID":"2009-044A","OBJECT_NAME":"JCSAT 12","NORAD_CAT_ID":"35755","OBJECT_TYPE":"PAYLOAD","PERIOD":"1436.031","INCLINATION":"0.0245","APOGEE":"35810.029","PERIGEE":"35760.605","ECCENTRICITY":"0.0005861","MEAN_MOTION":"1.00276349","TLE_LINE1":"1 35755U 09044A   16238.90252565  .00000000  00000-0  10000-3 0  9990","TLE_LINE2":"2 35755   0.0245  28.0313 0005861 291.9314 107.4948  1.00276349 25747","LAUNCH_DATE":"2009-08-21","LAUNCH_SITE":"FRENCH GUIANA","OWNER":"JAPAN","ORBIT_TYPE":"Geosynchronous","OPERATIONAL_STATUS":"Backup/Standby","satInfo":{"lng":112.78956019589138,"lat":-0.9155552598435405,"elevation":-9.46724379181452,"azimuth":202.2104398041086,"range":42740.82815443269,"height":35785.93005398408,"velocity":3.0754112197304213},"x":236,"y":98,"dx":-1.191253180497837,"dy":2.835325383513777,"maxAlt":257,"minAlt":256},{"OBJECT_ID":"2009-044B","OBJECT_NAME":"OPTUS D3","NORAD_CAT_ID":"35756","OBJECT_TYPE":"PAYLOAD","PERIOD":"1436.176","INCLINATION":"0.0399","APOGEE":"35798.971","PERIGEE":"35777.356","ECCENTRICITY":"0.0002563","MEAN_MOTION":"1.00266195","TLE_LINE1":"1 35756U 09044B   16238.69646267  .00000000  00000-0  10000-3 0  9993","TLE_LINE2":"2 35756   0.0399 353.0742 0002563 163.0726 224.9107  1.00266195 25714","LAUNCH_DATE":"2009-08-21","LAUNCH_SITE":"FRENCH GUIANA","OWNER":"AUSTRALIA","ORBIT_TYPE":"Geosynchronous","OPERATIONAL_STATUS":"Operational","satInfo":{"lng":-143.816632508717,"lat":0.353217676858177,"elevation":-8.221914147466494,"azimuth":98.81663250871699,"range":42635.8238077757,"height":35820.26009898795,"velocity":3.0732234250117743},"x":-154,"y":207,"dx":-2.480496128225982,"dy":-1.8143431808500323,"maxAlt":256,"minAlt":256},{"OBJECT_ID":"2009-046A","OBJECT_NAME":"PALAPA D","NORAD_CAT_ID":"35812","OBJECT_TYPE":"PAYLOAD","PERIOD":"1436.202","INCLINATION":"0.0207","APOGEE":"35794.545","PERIGEE":"35782.797","ECCENTRICITY":"0.0001393","MEAN_MOTION":"1.00264385","TLE_LINE1":"1 35812U 09046A   16238.04372948  .00000000  00000-0  10000-3 0  9999","TLE_LINE2":"2 35812   0.0207  82.6054 0001393  66.0233 313.7534  1.00264385 25755","LAUNCH_DATE":"2009-08-31","LAUNCH_SITE":"Xichang Space Center, China","OWNER":"INDONESIA","ORBIT_TYPE":"Geosynchronous","OPERATIONAL_STATUS":"Operational","satInfo":{"lng":50.405050069659374,"lat":0.1915114532437918,"elevation":-8.383798205662847,"azimuth":264.59494993034065,"range":42634.71009136478,"height":35801.19699248107,"velocity":3.07423051195412},"x":197,"y":-166,"dx":1.9593794895817975,"dy":2.3689080303878125,"maxAlt":256,"minAlt":256},{"OBJECT_ID":"2009-050A","OBJECT_NAME":"NIMIQ 5","NORAD_CAT_ID":"35873","OBJECT_TYPE":"PAYLOAD","PERIOD":"1436.101","INCLINATION":"0.0533","APOGEE":"35794.761","PERIGEE":"35778.603","ECCENTRICITY":"0.0001916","MEAN_MOTION":"1.00271479","TLE_LINE1":"1 35873U 09050A   16238.29841834 -.00000283  00000-0  00000+0 0  9992","TLE_LINE2":"2 35873   0.0533 281.2291 0001916 235.3819 212.0984  1.00271479 25433","LAUNCH_DATE":"2009-09-17","LAUNCH_SITE":"TYURATAM MISSILE AND SPACE COMPLEX","OWNER":"CANADA","ORBIT_TYPE":"Geosynchronous","OPERATIONAL_STATUS":"Operational","satInfo":{"lng":-90.23938132960242,"lat":-0.6164050012852097,"elevation":-9.173088202853034,"azimuth":45.239381329602416,"range":42720.545265812216,"height":35798.50427836513,"velocity":3.074322520066877},"x":-259,"y":0,"dx":-0.012844458661728618,"dy":-3.0742956880027075,"maxAlt":256,"minAlt":256},{"OBJECT_ID":"2009-054A","OBJECT_NAME":"AMAZONAS 2","NORAD_CAT_ID":"35942","OBJECT_TYPE":"PAYLOAD","PERIOD":"1436.121","INCLINATION":"0.021","APOGEE":"35810.975","PERIGEE":"35763.168","ECCENTRICITY":"0.0005669","MEAN_MOTION":"1.00270091","TLE_LINE1":"1 35942U 09054A   16238.77812355 -.00000310  00000-0  00000+0 0  9993","TLE_LINE2":"2 35942   0.0210 163.7689 0005669 359.1854  30.6097  1.00270091 25269","LAUNCH_DATE":"2009-09-30","LAUNCH_SITE":"FRENCH GUIANA","OWNER":"SPAIN","ORBIT_TYPE":"Geosynchronous","OPERATIONAL_STATUS":"Operational","satInfo":{"lng":-71.97991243604774,"lat":-0.39292043262188164,"elevation":-8.956824648188093,"azimuth":26.979912436047744,"range":42687.37684293185,"height":35789.69802339385,"velocity":3.0749298377082335},"x":-247,"y":-81,"dx":0.9512308066562051,"dy":-2.9240987430824847,"maxAlt":257,"minAlt":256},{"OBJECT_ID":"2009-058A","OBJECT_NAME":"NSS 12","NORAD_CAT_ID":"36032","OBJECT_TYPE":"PAYLOAD","PERIOD":"1436.102","INCLINATION":"0.0313","APOGEE":"35798.099","PERIGEE":"35775.313","ECCENTRICITY":"0.0002702","MEAN_MOTION":"1.00271395","TLE_LINE1":"1 36032U 09058A   16238.91228599  .00000044  00000-0  00000+0 0  9998","TLE_LINE2":"2 36032   0.0313 284.2319 0002702 228.4931 207.2825  1.00271395 25025","LAUNCH_DATE":"2009-10-29","LAUNCH_SITE":"FRENCH GUIANA","OWNER":"SOCIÉTÉ EUROPÉENNE DES SATELLITES","ORBIT_TYPE":"Geosynchronous","OPERATIONAL_STATUS":"Operational","satInfo":{"lng":93.13928957572082,"lat":0.6301594572305124,"elevation":-7.957324766061074,"azimuth":221.86071042427918,"range":42574.570573982615,"height":35789.05008334312,"velocity":3.0744720358888724},"x":256,"y":13,"dx":-0.16836893917896165,"dy":3.069858335458237,"maxAlt":256,"minAlt":256},{"OBJECT_ID":"2009-058B","OBJECT_NAME":"THOR 6","NORAD_CAT_ID":"36033","OBJECT_TYPE":"PAYLOAD","PERIOD":"1436.099","INCLINATION":"0.0228","APOGEE":"35793.901","PERIGEE":"35779.396","ECCENTRICITY":"0.000172","MEAN_MOTION":"1.002716","TLE_LINE1":"1 36033U 09058B   16239.13452203 -.00000038  00000-0  00000+0 0  9999","TLE_LINE2":"2 36033   0.0228 209.8796 0001720 314.8671 217.6354  1.00271600 25046","LAUNCH_DATE":"2009-10-29","LAUNCH_SITE":"FRENCH GUIANA","OWNER":"NORWAY","ORBIT_TYPE":"Geosynchronous","OPERATIONAL_STATUS":"Operational","satInfo":{"lng":19.65877835821005,"lat":0.3098221212202993,"elevation":-8.269205350455358,"azimuth":295.3412216417899,"range":42616.578109697686,"height":35795.98243913614,"velocity":3.074592962730451},"x":85,"y":-244,"dx":2.895383626050249,"dy":1.0343478836792415,"maxAlt":256,"minAlt":256}]